IRIDIUM 136             
1 42962U 17061H   24181.54479694  .00000352  00000+0  11864-3 0  9994
2 42962  86.3975 325.1533 0001961 100.7769 259.3648 14.34217463351979
